[{"OBJECT_NAME":"WEINA 2","OBJECT_ID":"2020-103B","EPOCH":"2026-03-09T23:41:17.753856","MEAN_MOTION":14.64853459,"ECCENTRICITY":0.00029334,"INCLINATION":98.066,"RA_OF_ASC_NODE":320.1762,"ARG_OF_PERICENTER":124.191,"MEAN_ANOMALY":235.9572,"EPHEMERIS_TYPE":0,"CLASSIFICATION_TYPE":"U","NORAD_CAT_ID":47303,"ELEMENT_SET_NO":999,"REV_AT_EPOCH":27720,"BSTAR":0.00031236828,"MEAN_MOTION_DOT":1.621e-5,"MEAN_MOTION_DDOT":0},{"OBJECT_NAME":"COSMOS 2251 DEB","OBJECT_ID":"1993-036AXL","EPOCH":"2026-03-09T02:13:23.751264","MEAN_MOTION":14.63331454,"ECCENTRICITY":0.00089724,"INCLINATION":74.0302,"RA_OF_ASC_NODE":313.6206,"ARG_OF_PERICENTER":14.8153,"MEAN_ANOMALY":345.3276,"EPHEMERIS_TYPE":0,"CLASSIFICATION_TYPE":"U","NORAD_CAT_ID":36049,"ELEMENT_SET_NO":999,"REV_AT_EPOCH":86627,"BSTAR":0.0010804048,"MEAN_MOTION_DOT":5.556e-5,"MEAN_MOTION_DDOT":0}]
